GLOBALSTAR M094 [+]     
1 39074U 13005C   24102.54466391 -.00000116  00000+0 -67929-4 0  9995
2 39074  51.9971  56.3380 0000682  57.8191 302.2742 12.62264192517861
GLOBALSTAR M096 [+]     
1 39075U 13005D   24102.32020784 -.00000111  00000+0 -38414-4 0  9996
2 39075  52.0058 105.1996 0000551  48.8067 311.2847 12.62264276516759
GLOBALSTAR M078 [+]     
1 39076U 13005E   24102.53194906 -.00000097  00000+0  36211-4 0  9993
2 39076  51.9866 189.6579 0000542 313.9007  46.1815 12.62260653515404
GLOBALSTAR M095 [+]     
1 39077U 13005F   24102.47837002 -.00000064  00000+0  22322-3 0  9999
2 39077  51.9792 187.2268 0000464  26.9900 333.0991 12.62264867515255
GLOBALSTAR M087 [+]     
1 52888U 22064A   24102.30650751 -.00000124  00000+0  87425-5 0  9999
2 52888  51.9754  81.5881 0009216 192.5223 167.5450 13.37569481 88570
