<?xml version="1.0" encoding="UTF-8"?>
<ndm xmlns:xsi="http://www.w3.org/2001/XMLSchema-instance" xsi:noNamespaceSchemaLocation="https://sanaregistry.org/r/ndmxml_unqualified/ndmxml-2.0.0-master-2.0.xsd">
<omm id="CCSDS_OMM_VERS" version="2.0">
<header><CREATION_DATE/><ORIGINATOR/></header><body><segment><metadata><OBJECT_NAME>GLOBALSTAR M094 [+]</OBJECT_NAME><OBJECT_ID>2013-005C</OBJECT_ID><CENTER_NAME>EARTH</CENTER_NAME><REF_FRAME>TEME</REF_FRAME><TIME_SYSTEM>UTC</TIME_SYSTEM><MEAN_ELEMENT_THEORY>SGP4</MEAN_ELEMENT_THEORY></metadata><data><meanElements><EPOCH>2024-04-11T13:04:18.961824</EPOCH><MEAN_MOTION>12.62264192</MEAN_MOTION><ECCENTRICITY>.0000682</ECCENTRICITY><INCLINATION>51.9971</INCLINATION><RA_OF_ASC_NODE>56.3380</RA_OF_ASC_NODE><ARG_OF_PERICENTER>57.8191</ARG_OF_PERICENTER><MEAN_ANOMALY>302.2742</MEAN_ANOMALY></meanElements><tleParameters><EPHEMERIS_TYPE>0</EPHEMERIS_TYPE><CLASSIFICATION_TYPE>U</CLASSIFICATION_TYPE><NORAD_CAT_ID>39074</NORAD_CAT_ID><ELEMENT_SET_NO>999</ELEMENT_SET_NO><REV_AT_EPOCH>51786</REV_AT_EPOCH><BSTAR>-.67929E-4</BSTAR><MEAN_MOTION_DOT>-.116E-5</MEAN_MOTION_DOT><MEAN_MOTION_DDOT>0</MEAN_MOTION_DDOT></tleParameters></data></segment></body></omm>
<omm id="CCSDS_OMM_VERS" version="2.0">
<header><CREATION_DATE/><ORIGINATOR/></header><body><segment><metadata><OBJECT_NAME>GLOBALSTAR M096 [+]</OBJECT_NAME><OBJECT_ID>2013-005D</OBJECT_ID><CENTER_NAME>EARTH</CENTER_NAME><REF_FRAME>TEME</REF_FRAME><TIME_SYSTEM>UTC</TIME_SYSTEM><MEAN_ELEMENT_THEORY>SGP4</MEAN_ELEMENT_THEORY></metadata><data><meanElements><EPOCH>2024-04-11T07:41:05.957376</EPOCH><MEAN_MOTION>12.62264276</MEAN_MOTION><ECCENTRICITY>.0000551</ECCENTRICITY><INCLINATION>52.0058</INCLINATION><RA_OF_ASC_NODE>105.1996</RA_OF_ASC_NODE><ARG_OF_PERICENTER>48.8067</ARG_OF_PERICENTER><MEAN_ANOMALY>311.2847</MEAN_ANOMALY></meanElements><tleParameters><EPHEMERIS_TYPE>0</EPHEMERIS_TYPE><CLASSIFICATION_TYPE>U</CLASSIFICATION_TYPE><NORAD_CAT_ID>39075</NORAD_CAT_ID><ELEMENT_SET_NO>999</ELEMENT_SET_NO><REV_AT_EPOCH>51675</REV_AT_EPOCH><BSTAR>-.38414E-4</BSTAR><MEAN_MOTION_DOT>-.111E-5</MEAN_MOTION_DOT><MEAN_MOTION_DDOT>0</MEAN_MOTION_DDOT></tleParameters></data></segment></body></omm>
<omm id="CCSDS_OMM_VERS" version="2.0">
<header><CREATION_DATE/><ORIGINATOR/></header><body><segment><metadata><OBJECT_NAME>GLOBALSTAR M078 [+]</OBJECT_NAME><OBJECT_ID>2013-005E</OBJECT_ID><CENTER_NAME>EARTH</CENTER_NAME><REF_FRAME>TEME</REF_FRAME><TIME_SYSTEM>UTC</TIME_SYSTEM><MEAN_ELEMENT_THEORY>SGP4</MEAN_ELEMENT_THEORY></metadata><data><meanElements><EPOCH>2024-04-11T12:46:00.398784</EPOCH><MEAN_MOTION>12.62260653</MEAN_MOTION><ECCENTRICITY>.0000542</ECCENTRICITY><INCLINATION>51.9866</INCLINATION><RA_OF_ASC_NODE>189.6579</RA_OF_ASC_NODE><ARG_OF_PERICENTER>313.9007</ARG_OF_PERICENTER><MEAN_ANOMALY>46.1815</MEAN_ANOMALY></meanElements><tleParameters><EPHEMERIS_TYPE>0</EPHEMERIS_TYPE><CLASSIFICATION_TYPE>U</CLASSIFICATION_TYPE><NORAD_CAT_ID>39076</NORAD_CAT_ID><ELEMENT_SET_NO>999</ELEMENT_SET_NO><REV_AT_EPOCH>51540</REV_AT_EPOCH><BSTAR>.36211E-4</BSTAR><MEAN_MOTION_DOT>-.97E-6</MEAN_MOTION_DOT><MEAN_MOTION_DDOT>0</MEAN_MOTION_DDOT></tleParameters></data></segment></body></omm>
<omm id="CCSDS_OMM_VERS" version="2.0">
<header><CREATION_DATE/><ORIGINATOR/></header><body><segment><metadata><OBJECT_NAME>GLOBALSTAR M095 [+]</OBJECT_NAME><OBJECT_ID>2013-005F</OBJECT_ID><CENTER_NAME>EARTH</CENTER_NAME><REF_FRAME>TEME</REF_FRAME><TIME_SYSTEM>UTC</TIME_SYSTEM><MEAN_ELEMENT_THEORY>SGP4</MEAN_ELEMENT_THEORY></metadata><data><meanElements><EPOCH>2024-04-11T11:28:51.169728</EPOCH><MEAN_MOTION>12.62264867</MEAN_MOTION><ECCENTRICITY>.0000464</ECCENTRICITY><INCLINATION>51.9792</INCLINATION><RA_OF_ASC_NODE>187.2268</RA_OF_ASC_NODE><ARG_OF_PERICENTER>26.9900</ARG_OF_PERICENTER><MEAN_ANOMALY>333.0991</MEAN_ANOMALY></meanElements><tleParameters><EPHEMERIS_TYPE>0</EPHEMERIS_TYPE><CLASSIFICATION_TYPE>U</CLASSIFICATION_TYPE><NORAD_CAT_ID>39077</NORAD_CAT_ID><ELEMENT_SET_NO>999</ELEMENT_SET_NO><REV_AT_EPOCH>51525</REV_AT_EPOCH><BSTAR>.22322E-3</BSTAR><MEAN_MOTION_DOT>-.64E-6</MEAN_MOTION_DOT><MEAN_MOTION_DDOT>0</MEAN_MOTION_DDOT></tleParameters></data></segment></body></omm>
<omm id="CCSDS_OMM_VERS" version="2.0">
<header><CREATION_DATE/><ORIGINATOR/></header><body><segment><metadata><OBJECT_NAME>GLOBALSTAR M087 [+]</OBJECT_NAME><OBJECT_ID>2022-064A</OBJECT_ID><CENTER_NAME>EARTH</CENTER_NAME><REF_FRAME>TEME</REF_FRAME><TIME_SYSTEM>UTC</TIME_SYSTEM><MEAN_ELEMENT_THEORY>SGP4</MEAN_ELEMENT_THEORY></metadata><data><meanElements><EPOCH>2024-04-11T07:21:22.248864</EPOCH><MEAN_MOTION>13.37569481</MEAN_MOTION><ECCENTRICITY>.0009216</ECCENTRICITY><INCLINATION>51.9754</INCLINATION><RA_OF_ASC_NODE>81.5881</RA_OF_ASC_NODE><ARG_OF_PERICENTER>192.5223</ARG_OF_PERICENTER><MEAN_ANOMALY>167.5450</MEAN_ANOMALY></meanElements><tleParameters><EPHEMERIS_TYPE>0</EPHEMERIS_TYPE><CLASSIFICATION_TYPE>U</CLASSIFICATION_TYPE><NORAD_CAT_ID>52888</NORAD_CAT_ID><ELEMENT_SET_NO>999</ELEMENT_SET_NO><REV_AT_EPOCH>8857</REV_AT_EPOCH><BSTAR>.87425E-5</BSTAR><MEAN_MOTION_DOT>-.124E-5</MEAN_MOTION_DOT><MEAN_MOTION_DDOT>0</MEAN_MOTION_DDOT></tleParameters></data></segment></body></omm>
</ndm>
